MEAN_MOTION;ECCENTRICITY;INCLINATION;RA_OF_ASC_NODE;ARG_OF_PERICENTER;MEAN_ANOMALY;BSTAR;MEAN_MOTION_DOT;MEAN_MOTION_DDOT;TYPE
1.00269149;0.0001469;0.0218;162.9421;314.4188;178.3803;0;-1.63E-6;0;Intelsat
1.00270628;0.000146;0.0222;168.2835;304.0395;186.2532;0;-1.67E-6;0;Intelsat
1.00271425;0.0001632;0.0228;172.0576;320.0679;321.9245;0;-1.69E-6;0;Intelsat
1.00267563;0.000146;0.0227;174.9416;304.0848;149.074;0;-1.7E-6;0;Intelsat
1.00269248;0.0001452;0.0232;174.9245;299.452;187.009;0;-1.7E-6;0;Intelsat
1.00269791;0.0001481;0.0235;174.1078;296.6251;320.2253;0;-1.72E-6;0;Intelsat
1.00271075;0.0001621;0.0241;177.9762;279.7324;206.3756;0;-1.74E-6;0;Intelsat
1.00268024;0.000156;0.0248;176.4701;288.4172;176.1607;0;-1.75E-6;0;Intelsat
1.00268024;0.000156;0.0248;176.4701;288.4172;176.1607;0;-1.75E-6;0;Intelsat
1.00267986;0.0001721;0.0249;175.2975;289.4086;153.2206;0;-1.76E-6;0;Intelsat
1.00268182;0.0001756;0.0248;174.3545;290.5909;282.5356;0;-1.76E-6;0;Intelsat
1.00268292;0.0001856;0.0239;178.6478;292.6903;97.5874;0;-1.76E-6;0;Intelsat
1.00279104;0.0001292;0.023;183.6914;287.8661;48.3382;0;-1.77E-6;0;Intelsat
1.00290173;0.0002299;0.0343;247.6831;79.5915;301.9251;0;-1.76E-6;0;Intelsat
1.00271513;0.0001858;0.0218;273.8962;60.0503;284.6635;0;-1.73E-6;0;Intelsat
1.00271877;0.0001759;0.0176;269.3272;66.9245;298.5222;0;-1.72E-6;0;Intelsat
1.00273628;0.0002172;0.0224;260.3961;42.1734;101.7745;0;-1.71E-6;0;Intelsat
1.0027697;0.0002075;0.0204;272.0512;59.0792;176.881;0;-1.72E-6;0;Intelsat
1.00274833;0.0001979;0.0207;273.0125;61.0684;281.5404;0;-1.71E-6;0;Intelsat
1.0026898;0.0002022;0.0195;179.77;292.7054;320.5784;0;-1.7E-6;0;Intelsat
1.00266491;0.0002277;0.0184;183.2834;296.7289;100.5233;0;-1.69E-6;0;Intelsat
1.00270086;0.000204;0.0192;183.0134;295.1119;188.1416;0;-1.7E-6;0;Intelsat
1.00271172;0.0002039;0.0194;180.6362;295.2768;293.9927;0;-1.69E-6;0;Intelsat
1.00271085;0.0002037;0.0199;181.0059;295.2914;341.5187;0;-1.7E-6;0;Intelsat
1.00274321;0.0001717;0.0201;188.1212;289.7812;80.3779;0;-1.7E-6;0;Intelsat
1.00271432;0.0001923;0.0204;188.7866;289.0103;161.5875;0;-1.69E-6;0;Intelsat
1.00270923;0.0001954;0.0204;188.5405;289.8424;294.3312;0;-1.69E-6;0;Intelsat
1.00270069;0.0001869;0.021;195.3134;283.2831;85.4354;0;-1.68E-6;0;Intelsat
1.00274042;0.0001773;0.0171;233.177;248.8622;296.2773;0;-1.66E-6;0;Intelsat
1.00269915;0.0001714;0.02;227.0567;254.8359;169.609;0;-1.64E-6;0;Intelsat
1.00268332;0.0001755;0.0238;207.002;273.1758;148.2736;0;-1.62E-6;0;Intelsat
1.00268281;0.0001704;0.0236;206.6396;274.4085;302.8653;0;-1.61E-6;0;Intelsat
1.00268197;0.0001676;0.0233;206.3205;275.0756;143.2538;0;-1.6E-6;0;Intelsat
1.00268122;0.000182;0.0229;205.6649;274.3017;306.7582;0;-1.58E-6;0;Intelsat
1.00281553;0.0001944;0.0229;211.8199;254.7013;193.4344;0;-1.59E-6;0;Intelsat
1.00269556;0.0001527;0.0226;211.4799;270.4882;302.4689;0;-1.57E-6;0;Intelsat
1.00271978;0.0001581;0.0018;181.7159;300.0409;359.609;0;-1.57E-6;0;Intelsat
1.00270723;0.0001514;0.0231;219.7827;266.3715;145.1799;0;-1.56E-6;0;Intelsat
1.00250358;0.0002738;0.0198;236.4195;252.7319;357.4869;0;-1.52E-6;0;Intelsat
1.00273387;0.0001525;0.0194;237.3404;249.4522;308.3467;0;-1.54E-6;0;Intelsat
1.00273049;0.0001402;0.021;268.4645;224.3485;191.532;0;-1.53E-6;0;Intelsat
1.00274946;0.0001468;0.0111;255.4652;233.6091;282.951;0;-1.53E-6;0;Intelsat
1.00270275;0.0001193;0.014;249.9539;233.204;60.0149;0;-1.53E-6;0;Intelsat
1.00272474;0.0001492;0.0059;259.9902;234.7141;154.6406;0;-1.53E-6;0;Intelsat
1.00270691;0.0001223;0.0161;243.4832;241.6443;346.9802;0;-1.53E-6;0;Intelsat
1.00270755;0.0001242;0.0174;240.2972;241.9165;191.7635;0;-1.54E-6;0;Intelsat
1.00270389;0.0001233;0.0182;238.1011;244.4077;38.774;0;-1.55E-6;0;Intelsat
1.00270561;0.0001257;0.0192;235.1405;243.2291;324.0769;0;-1.57E-6;0;Intelsat
1.00270319;0.0001215;0.0006;322.1836;152.6605;345.9736;0;-1.57E-6;0;Intelsat
1.00273806;0.0001113;0.0185;239.2517;247.5298;90.4164;0;-1.59E-6;0;Intelsat
1.00272975;0.0001186;0.0186;236.3281;248.4462;155.8798;0;-1.59E-6;0;Intelsat
1.00272358;0.0001298;0.0158;229.962;250.1504;329.0368;0;-1.61E-6;0;Intelsat
1.00272653;0.00012;0.0184;240.0425;242.0227;303.9674;0;-1.64E-6;0;Intelsat
1.00277584;0.0001358;0.016;247.6579;229.1624;199.4193;0;-1.67E-6;0;Intelsat
1.00277584;0.0001358;0.016;247.6579;229.1624;199.4193;0;-1.67E-6;0;Intelsat
1.0027191;9.94E-5;0.0154;254.6394;229.5108;100.1944;0;-1.68E-6;0;Intelsat
1.00268329;8.1E-5;0.0155;253.2424;216.7117;321.6733;0;-1.69E-6;0;Intelsat
1.00270226;0.000106;0.0172;249.5878;223.3932;168.3655;0;-1.71E-6;0;Intelsat
1.0027015;0.0001147;0.0187;249.0343;223.7715;295.7135;0;-1.71E-6;0;Intelsat
1.00270058;0.0001211;0.0201;248.4154;223.1734;144.2469;0;-1.71E-6;0;Intelsat
1.0026901;0.0001896;0.0211;234.6498;217.4287;347.9733;0;-1.71E-6;0;Intelsat
1.00268964;0.0001862;0.0212;238.7322;220.7756;198.3063;0;-1.71E-6;0;Intelsat
1.00270888;0.0001592;0.0205;254.8312;202.8916;164.3319;0;-1.71E-6;0;Intelsat
1.00272524;0.000158;0.0177;258.0917;196.2168;172.7437;0;-1.7E-6;0;Intelsat
1.00268774;0.0001481;0.0165;258.2818;185.1228;339.1482;0;-1.69E-6;0;Intelsat
1.00271659;0.0001606;0.016;256.9562;194.8436;61.9697;0;-1.69E-6;0;Intelsat
1.00272848;0.0001603;0.0154;262.1542;192.771;330.384;0;-1.68E-6;0;Intelsat
1.00264484;0.0002042;0.0143;262.6861;185.7535;77.5078;0;-1.67E-6;0;Intelsat
1.00270965;0.0001635;0.0137;264.2618;187.3388;202.4843;0;-1.67E-6;0;Intelsat
1.00271075;0.0001688;0.0167;258.6616;194.2046;237.8029;0;-1.66E-6;0;Intelsat
1.00271075;0.0001688;0.0167;258.6616;194.2046;237.8029;0;-1.66E-6;0;Intelsat
1.00271028;0.0001712;0.0172;259.6181;194.0598;324.7779;0;-1.66E-6;0;Intelsat
1.00271051;0.0001759;0.0177;258.8948;195.9247;189.0216;0;-1.65E-6;0;Intelsat
1.00271044;0.0001757;0.0179;258.1857;196.8927;317.8416;0;-1.65E-6;0;Intelsat
1.00271041;0.0001758;0.0179;258.3918;196.8479;338.5191;0;-1.65E-6;0;Intelsat
1.00271084;0.0001877;0.0186;259.3544;198.8538;191.2963;0;-1.64E-6;0;Intelsat
1.00271074;0.0001882;0.0189;260.156;198.1673;234.5601;0;-1.64E-6;0;Intelsat
1.00272412;0.0001816;0.0173;255.8515;197.7902;86.5697;0;-1.64E-6;0;Intelsat
1.00272778;0.0001798;0.0177;257.4024;197.4576;163.104;0;-1.63E-6;0;Intelsat
1.00273773;0.0001609;0.0171;257.3657;195.8615;76.9855;0;-1.63E-6;0;Intelsat
1.00271425;0.0001684;0.0168;261.3529;196.9083;200.5609;0;-1.62E-6;0;Intelsat
1.00272511;0.0001676;0.0171;259.6072;196.0774;242.823;0;-1.62E-6;0;Intelsat
1.00271588;0.0001587;0.0168;264.1121;193.6172;205.371;0;-1.6E-6;0;Intelsat
1.00271065;0.0001556;0.0155;267.9936;181.488;355.495;0;-1.59E-6;0;Intelsat
1.00270852;0.0001473;0.0162;269.43;189.9262;322.5062;0;-1.57E-6;0;Intelsat
1.00270734;0.0001452;0.0189;268.5528;192.3459;349.6115;0;-1.54E-6;0;Intelsat
1.00270744;0.0001453;0.0189;268.0634;192.7971;22.4054;0;-1.54E-6;0;Intelsat
1.00270682;0.0001411;0.0215;271.4147;189.8406;352.053;0;-1.51E-6;0;Intelsat
1.00269355;0.0001361;0.0211;266.6565;192.9842;141.1498;0;-1.5E-6;0;Intelsat
1.00270913;0.0001317;0.0201;268.4772;186.0512;302.6622;0;-1.49E-6;0;Intelsat
1.0027087;0.0001326;0.0202;268.9195;185.4761;335.8029;0;-1.49E-6;0;Intelsat
1.00270293;0.0001492;0.0201;274.8996;187.9588;200.569;0;-1.48E-6;0;Intelsat
1.00272247;0.0001374;0.0203;274.4638;182.5926;232.2915;0;-1.48E-6;0;Intelsat
1.00272247;0.0001374;0.0203;274.4638;182.5926;232.2915;0;-1.48E-6;0;Intelsat
1.00272731;0.0001336;0.0215;276.1148;178.2749;338.6371;0;-1.47E-6;0;Intelsat
1.00272626;0.0001293;0.0173;279.0186;175.0421;238.1015;0;-1.46E-6;0;Intelsat
1.00272746;0.0001295;0.0182;279.7209;174.1881;318.3549;0;-1.47E-6;0;Intelsat
1.00270266;0.000112;0.0133;282.4231;153.85;336.9789;0;-1.46E-6;0;Intelsat
1.00271594;0.0001132;0.0131;279.9439;164.2749;72.1338;0;-1.46E-6;0;Intelsat
1.00270745;0.0001105;0.0143;281.5883;170.8743;92.6215;0;-1.47E-6;0;Intelsat
1.00270655;0.000112;0.015;281.8416;170.2644;248.4412;0;-1.48E-6;0;Intelsat
1.00270497;0.0001133;0.016;282.7166;170.0215;95.2569;0;-1.5E-6;0;Intelsat
1.00270371;0.0001215;0.0169;284.7597;167.3817;150.3468;0;-1.53E-6;0;Intelsat
1.00272335;0.000134;0.0165;280.57;161.4099;264.1799;0;-1.54E-6;0;Intelsat
1.00273927;0.0001394;0.0165;279.023;161.9634;267.9664;0;-1.58E-6;0;Intelsat
1.00271938;0.000119;0.0163;278.3286;161.723;116.2356;0;-1.6E-6;0;Intelsat
1.00271742;0.0001251;0.016;283.3511;157.8666;244.623;0;-1.6E-6;0;Intelsat
1.00269324;0.0001326;0.0164;282.7224;147.6201;352.8266;0;-1.61E-6;0;Intelsat
1.00266347;0.0001216;0.0156;283.6742;137.9324;292.8834;0;-1.62E-6;0;Intelsat
1.00270382;0.0001335;0.0163;283.8752;148.2417;88.9856;0;-1.64E-6;0;Intelsat
1.00271454;0.000134;0.0178;287.5864;150.3724;343.1702;0;-1.65E-6;0;Intelsat
1.00270165;0.000135;0.019;290.8169;152.1963;241.3918;0;-1.65E-6;0;Intelsat
1.00270122;0.0001384;0.0206;291.5918;152.044;354.2482;0;-1.65E-6;0;Intelsat
1.00270225;0.0001683;0.0129;295.2164;154.7889;337.0904;0;-1.65E-6;0;Intelsat
1.00270889;0.00016;0.0179;294.8834;153.1399;90.3785;0;-1.64E-6;0;Intelsat
1.0026916;0.0001887;0.0191;301.2502;151.6911;195.0529;0;-1.63E-6;0;Intelsat
1.00272877;0.0001624;0.0175;294.605;149.2949;238.1724;0;-1.63E-6;0;Intelsat
1.00269639;0.0001901;0.0216;304.565;143.3454;341.1596;0;-1.62E-6;0;Intelsat
1.00271444;0.0001916;0.003;351.9164;96.18;29.8572;0;-1.63E-6;0;Intelsat
1.00270472;0.0001738;0.0191;300.8416;137.305;346.1476;0;-1.62E-6;0;Intelsat
1.00272207;0.0001695;0.0177;309.9923;134.9838;211.4252;0;-1.61E-6;0;Intelsat
1.00272944;0.0001766;0.0157;306.2396;134.4664;267.5333;0;-1.61E-6;0;Intelsat
1.00271019;0.0001659;0.0149;312.4676;134.8743;222.1457;0;-1.6E-6;0;Intelsat
1.00271037;0.000166;0.0147;311.5793;135.8169;237.722;0;-1.6E-6;0;Intelsat
1.00271232;0.0001683;0.016;311.8896;136.2238;6.589;0;-1.6E-6;0;Intelsat
1.00271276;0.0001715;0.0164;307.256;142.9417;263.6468;0;-1.6E-6;0;Intelsat
1.00271267;0.0001749;0.0143;306.3728;146.6668;237.6933;0;-1.59E-6;0;Intelsat
1.00271268;0.0001749;0.0152;308.9872;144.1359;263.4952;0;-1.59E-6;0;Intelsat
1.00271275;0.0001752;0.0142;307.9923;145.8788;6.4257;0;-1.58E-6;0;Intelsat
